[{"OBJECT_NAME":"STARLINK-5060","OBJECT_ID":"2023-014Y","EPOCH":"2026-03-09T11:13:05.271168","MEAN_MOTION":14.98333751,"ECCENTRICITY":0.00032563,"INCLINATION":69.999,"RA_OF_ASC_NODE":84.8274,"ARG_OF_PERICENTER":271.199,"MEAN_ANOMALY":88.8796,"EPHEMERIS_TYPE":0,"CLASSIFICATION_TYPE":"U","NORAD_CAT_ID":55413,"ELEMENT_SET_NO":999,"REV_AT_EPOCH":17153,"BSTAR":-7.0163215e-5,"MEAN_MOTION_DOT":-9.3e-6,"MEAN_MOTION_DDOT":0},{"OBJECT_NAME":"ANTELSAT","OBJECT_ID":"2014-033AA","EPOCH":"2026-03-09T21:56:19.142880","MEAN_MOTION":14.90152282,"ECCENTRICITY":0.00441676,"INCLINATION":97.764,"RA_OF_ASC_NODE":226.2739,"ARG_OF_PERICENTER":26.8149,"MEAN_ANOMALY":333.5339,"EPHEMERIS_TYPE":0,"CLASSIFICATION_TYPE":"U","NORAD_CAT_ID":40034,"ELEMENT_SET_NO":999,"REV_AT_EPOCH":63102,"BSTAR":0.00055679105,"MEAN_MOTION_DOT":5.434e-5,"MEAN_MOTION_DDOT":0}]
